[{"OBJECT_NAME":"ORBCOMM FM35","OBJECT_ID":"1999-065F","EPOCH":"2026-03-28T16:54:25.254144","MEAN_MOTION":14.37919473,"ECCENTRICITY":0.0002098,"INCLINATION":45.0388,"RA_OF_ASC_NODE":189.002,"ARG_OF_PERICENTER":0.5616,"MEAN_ANOMALY":359.5235,"EPHEMERIS_TYPE":0,"CLASSIFICATION_TYPE":"U","NORAD_CAT_ID":25985,"ELEMENT_SET_NO":999,"REV_AT_EPOCH":37572,"BSTAR":0.00037647214,"MEAN_MOTION_DOT":1.005e-5,"MEAN_MOTION_DDOT":0},{"OBJECT_NAME":"ORBCOMM FM34","OBJECT_ID":"1999-065G","EPOCH":"2026-03-29T05:34:34.709952","MEAN_MOTION":14.3782514,"ECCENTRICITY":0.0003647,"INCLINATION":45.0383,"RA_OF_ASC_NODE":187.025,"ARG_OF_PERICENTER":305.4305,"MEAN_ANOMALY":54.6203,"EPHEMERIS_TYPE":0,"CLASSIFICATION_TYPE":"U","NORAD_CAT_ID":25986,"ELEMENT_SET_NO":999,"REV_AT_EPOCH":37591,"BSTAR":0.00037332,"MEAN_MOTION_DOT":9.93e-6,"MEAN_MOTION_DDOT":0},{"OBJECT_NAME":"ORBCOMM FM38","OBJECT_ID":"2008-031A","EPOCH":"2026-03-29T04:47:39.491232","MEAN_MOTION":14.82818461,"ECCENTRICITY":0.0004532,"INCLINATION":48.4404,"RA_OF_ASC_NODE":35.4672,"ARG_OF_PERICENTER":196.6151,"MEAN_ANOMALY":163.4617,"EPHEMERIS_TYPE":0,"CLASSIFICATION_TYPE":"U","NORAD_CAT_ID":33060,"ELEMENT_SET_NO":999,"REV_AT_EPOCH":95702,"BSTAR":0.00037164,"MEAN_MOTION_DOT":2.824e-5,"MEAN_MOTION_DDOT":0},{"OBJECT_NAME":"ORBCOMM FM41","OBJECT_ID":"2008-031B","EPOCH":"2026-03-29T03:43:48.135936","MEAN_MOTION":14.82345745,"ECCENTRICITY":0.0003619,"INCLINATION":48.4436,"RA_OF_ASC_NODE":44.4925,"ARG_OF_PERICENTER":180.6311,"MEAN_ANOMALY":193.3573,"EPHEMERIS_TYPE":0,"CLASSIFICATION_TYPE":"U","NORAD_CAT_ID":33061,"ELEMENT_SET_NO":999,"REV_AT_EPOCH":95649,"BSTAR":0.0003053,"MEAN_MOTION_DOT":2.253e-5,"MEAN_MOTION_DDOT":0},{"OBJECT_NAME":"ORBCOMM FM29","OBJECT_ID":"2008-031C","EPOCH":"2026-03-29T03:04:31.562112","MEAN_MOTION":14.82522104,"ECCENTRICITY":0.0005196,"INCLINATION":48.4385,"RA_OF_ASC_NODE":52.0127,"ARG_OF_PERICENTER":178.1504,"MEAN_ANOMALY":274.0241,"EPHEMERIS_TYPE":0,"CLASSIFICATION_TYPE":"U","NORAD_CAT_ID":33062,"ELEMENT_SET_NO":999,"REV_AT_EPOCH":95640,"BSTAR":0.00031703,"MEAN_MOTION_DOT":2.358e-5,"MEAN_MOTION_DDOT":0},{"OBJECT_NAME":"ORBCOMM FM39","OBJECT_ID":"2008-031D","EPOCH":"2026-03-29T05:37:30.496800","MEAN_MOTION":14.80893167,"ECCENTRICITY":0.0005852,"INCLINATION":48.4401,"RA_OF_ASC_NODE":79.0889,"ARG_OF_PERICENTER":145.0227,"MEAN_ANOMALY":215.1073,"EPHEMERIS_TYPE":0,"CLASSIFICATION_TYPE":"U","NORAD_CAT_ID":33063,"ELEMENT_SET_NO":999,"REV_AT_EPOCH":95602,"BSTAR":0.0002827,"MEAN_MOTION_DOT":1.994e-5,"MEAN_MOTION_DDOT":0},{"OBJECT_NAME":"ORBCOMM FM37","OBJECT_ID":"2008-031E","EPOCH":"2026-03-28T23:21:17.049600","MEAN_MOTION":14.81080883,"ECCENTRICITY":0.0004618,"INCLINATION":48.4397,"RA_OF_ASC_NODE":68.4154,"ARG_OF_PERICENTER":166.8132,"MEAN_ANOMALY":245.7336,"EPHEMERIS_TYPE":0,"CLASSIFICATION_TYPE":"U","NORAD_CAT_ID":33064,"ELEMENT_SET_NO":999,"REV_AT_EPOCH":95624,"BSTAR":0.000256,"MEAN_MOTION_DOT":1.794e-5,"MEAN_MOTION_DDOT":0},{"OBJECT_NAME":"ORBCOMM FM40","OBJECT_ID":"2008-031F","EPOCH":"2026-03-29T05:45:24.490656","MEAN_MOTION":14.83752788,"ECCENTRICITY":0.0005752,"INCLINATION":48.4412,"RA_OF_ASC_NODE":46.006,"ARG_OF_PERICENTER":184.6426,"MEAN_ANOMALY":312.7891,"EPHEMERIS_TYPE":0,"CLASSIFICATION_TYPE":"U","NORAD_CAT_ID":33065,"ELEMENT_SET_NO":999,"REV_AT_EPOCH":95646,"BSTAR":0.00041572,"MEAN_MOTION_DOT":3.261e-5,"MEAN_MOTION_DDOT":0},{"OBJECT_NAME":"VESSELSAT 1","OBJECT_ID":"2011-058C","EPOCH":"2026-03-29T05:30:41.733216","MEAN_MOTION":14.1142466,"ECCENTRICITY":0.0013787,"INCLINATION":19.9607,"RA_OF_ASC_NODE":168.9948,"ARG_OF_PERICENTER":82.1179,"MEAN_ANOMALY":278.079,"EPHEMERIS_TYPE":0,"CLASSIFICATION_TYPE":"U","NORAD_CAT_ID":37840,"ELEMENT_SET_NO":999,"REV_AT_EPOCH":74662,"BSTAR":6.0016e-5,"MEAN_MOTION_DOT":3.75e-6,"MEAN_MOTION_DDOT":0},{"OBJECT_NAME":"ORBCOMM FM109","OBJECT_ID":"2014-040A","EPOCH":"2026-03-29T00:48:51.737760","MEAN_MOTION":14.58751008,"ECCENTRICITY":0.0002332,"INCLINATION":47.0022,"RA_OF_ASC_NODE":110.4181,"ARG_OF_PERICENTER":237.5713,"MEAN_ANOMALY":122.4947,"EPHEMERIS_TYPE":0,"CLASSIFICATION_TYPE":"U","NORAD_CAT_ID":40086,"ELEMENT_SET_NO":999,"REV_AT_EPOCH":62264,"BSTAR":0.00014859,"MEAN_MOTION_DOT":5.3e-6,"MEAN_MOTION_DDOT":0},{"OBJECT_NAME":"ORBCOMM FM107","OBJECT_ID":"2014-040B","EPOCH":"2026-03-29T01:08:18.688128","MEAN_MOTION":14.58835664,"ECCENTRICITY":8.73e-5,"INCLINATION":47.0037,"RA_OF_ASC_NODE":111.1956,"ARG_OF_PERICENTER":214.4599,"MEAN_ANOMALY":145.623,"EPHEMERIS_TYPE":0,"CLASSIFICATION_TYPE":"U","NORAD_CAT_ID":40087,"ELEMENT_SET_NO":999,"REV_AT_EPOCH":62272,"BSTAR":0.00015062,"MEAN_MOTION_DOT":5.41e-6,"MEAN_MOTION_DDOT":0},{"OBJECT_NAME":"ORBCOMM FM106","OBJECT_ID":"2014-040C","EPOCH":"2026-03-28T13:31:39.213120","MEAN_MOTION":14.70347707,"ECCENTRICITY":0.0016738,"INCLINATION":47.0594,"RA_OF_ASC_NODE":272.4842,"ARG_OF_PERICENTER":307.3414,"MEAN_ANOMALY":52.5952,"EPHEMERIS_TYPE":0,"CLASSIFICATION_TYPE":"U","NORAD_CAT_ID":40088,"ELEMENT_SET_NO":999,"REV_AT_EPOCH":62531,"BSTAR":0.00018412,"MEAN_MOTION_DOT":9.35e-6,"MEAN_MOTION_DDOT":0},{"OBJECT_NAME":"ORBCOMM FM111","OBJECT_ID":"2014-040D","EPOCH":"2026-03-29T05:42:25.158816","MEAN_MOTION":14.88452103,"ECCENTRICITY":0.0027614,"INCLINATION":46.9999,"RA_OF_ASC_NODE":79.5832,"ARG_OF_PERICENTER":119.8178,"MEAN_ANOMALY":240.5471,"EPHEMERIS_TYPE":0,"CLASSIFICATION_TYPE":"U","NORAD_CAT_ID":40089,"ELEMENT_SET_NO":999,"REV_AT_EPOCH":63266,"BSTAR":0.00042678,"MEAN_MOTION_DOT":3.812e-5,"MEAN_MOTION_DDOT":0},{"OBJECT_NAME":"ORBCOMM FM104","OBJECT_ID":"2014-040E","EPOCH":"2026-03-29T05:09:25.632864","MEAN_MOTION":14.57194147,"ECCENTRICITY":0.001514,"INCLINATION":47.0038,"RA_OF_ASC_NODE":147.482,"ARG_OF_PERICENTER":66.9085,"MEAN_ANOMALY":293.3395,"EPHEMERIS_TYPE":0,"CLASSIFICATION_TYPE":"U","NORAD_CAT_ID":40090,"ELEMENT_SET_NO":999,"REV_AT_EPOCH":62218,"BSTAR":0.00015339,"MEAN_MOTION_DOT":5.29e-6,"MEAN_MOTION_DDOT":0},{"OBJECT_NAME":"ORBCOMM FM103","OBJECT_ID":"2014-040F","EPOCH":"2026-03-28T18:18:01.759104","MEAN_MOTION":14.58739688,"ECCENTRICITY":0.00012522,"INCLINATION":47.0041,"RA_OF_ASC_NODE":113.2785,"ARG_OF_PERICENTER":185.6557,"MEAN_ANOMALY":174.4315,"EPHEMERIS_TYPE":0,"CLASSIFICATION_TYPE":"U","NORAD_CAT_ID":40091,"ELEMENT_SET_NO":999,"REV_AT_EPOCH":60564,"BSTAR":0.00014857601,"MEAN_MOTION_DOT":5.3e-6,"MEAN_MOTION_DDOT":0},{"OBJECT_NAME":"ORBCOMM FM114","OBJECT_ID":"2015-081A","EPOCH":"2026-03-29T02:53:09.003840","MEAN_MOTION":14.58760641,"ECCENTRICITY":0.0002231,"INCLINATION":47.0064,"RA_OF_ASC_NODE":20.5228,"ARG_OF_PERICENTER":212.621,"MEAN_ANOMALY":147.4538,"EPHEMERIS_TYPE":0,"CLASSIFICATION_TYPE":"U","NORAD_CAT_ID":41179,"ELEMENT_SET_NO":999,"REV_AT_EPOCH":54606,"BSTAR":0.00017617,"MEAN_MOTION_DOT":6.6e-6,"MEAN_MOTION_DDOT":0},{"OBJECT_NAME":"ORBCOMM FM119","OBJECT_ID":"2015-081B","EPOCH":"2026-03-28T20:18:41.160672","MEAN_MOTION":14.58701955,"ECCENTRICITY":0.00014641,"INCLINATION":47,"RA_OF_ASC_NODE":291.18,"ARG_OF_PERICENTER":268.6411,"MEAN_ANOMALY":91.4307,"EPHEMERIS_TYPE":0,"CLASSIFICATION_TYPE":"U","NORAD_CAT_ID":41180,"ELEMENT_SET_NO":999,"REV_AT_EPOCH":54727,"BSTAR":0.00014508092,"MEAN_MOTION_DOT":5.13e-6,"MEAN_MOTION_DDOT":0}]
