ORBCOMM FM35            
1 25985U 99065F   26087.70445896  .00001005  00000+0  37647-3 0  9999
2 25985  45.0388 189.0020 0002098   0.5616 359.5235 14.37919473375720
ORBCOMM FM34            
1 25986U 99065G   26088.23234618  .00000993  00000+0  37332-3 0  9993
2 25986  45.0383 187.0250 0003647 305.4305  54.6203 14.37825140375918
ORBCOMM FM38            
1 33060U 08031A   26088.19976263  .00002824  00000+0  37164-3 0  9990
2 33060  48.4404  35.4672 0004532 196.6151 163.4617 14.82818461957022
ORBCOMM FM41            
1 33061U 08031B   26088.15541824  .00002253  00000+0  30530-3 0  9994
2 33061  48.4436  44.4925 0003619 180.6311 193.3573 14.82345745956498
ORBCOMM FM29            
1 33062U 08031C   26088.12814308  .00002358  00000+0  31703-3 0  9991
2 33062  48.4385  52.0127 0005196 178.1504 274.0241 14.82522104956405
ORBCOMM FM39            
1 33063U 08031D   26088.23438075  .00001994  00000+0  28270-3 0  9997
2 33063  48.4401  79.0889 0005852 145.0227 215.1073 14.80893167956028
ORBCOMM FM37            
1 33064U 08031E   26087.97311400  .00001794  00000+0  25600-3 0  9992
2 33064  48.4397  68.4154 0004618 166.8132 245.7336 14.81080883956244
ORBCOMM FM40            
1 33065U 08031F   26088.23986679  .00003261  00000+0  41572-3 0  9996
2 33065  48.4412  46.0060 0005752 184.6426 312.7891 14.83752788956462
VESSELSAT 1             
1 37840U 11058C   26088.22964969  .00000375  00000+0  60016-4 0  9999
2 37840  19.9607 168.9948 0013787  82.1179 278.0790 14.11424660746622
ORBCOMM FM109           
1 40086U 14040A   26088.03393215  .00000530  00000+0  14859-3 0  9994
2 40086  47.0022 110.4181 0002332 237.5713 122.4947 14.58751008622647
ORBCOMM FM107           
1 40087U 14040B   26088.04743852  .00000541  00000+0  15062-3 0  9991
2 40087  47.0037 111.1956 0000873 214.4599 145.6230 14.58835664622728
ORBCOMM FM106           
1 40088U 14040C   26087.56364830  .00000935  00000+0  18412-3 0  9992
2 40088  47.0594 272.4842 0016738 307.3414  52.5952 14.70347707625312
ORBCOMM FM111           
1 40089U 14040D   26088.23779119  .00003812  00000+0  42678-3 0  9996
2 40089  46.9999  79.5832 0027614 119.8178 240.5471 14.88452103632660
ORBCOMM FM104           
1 40090U 14040E   26088.21488001  .00000529  00000+0  15339-3 0  9999
2 40090  47.0038 147.4820 0015140  66.9085 293.3395 14.57194147622184
ORBCOMM FM103           
1 40091U 14040F   26087.76252036  .00000530  00000+0  14858-3 0  9993
2 40091  47.0041 113.2785 0001252 185.6557 174.4315 14.58739688605641
ORBCOMM FM114           
1 41179U 15081A   26088.12024310  .00000660  00000+0  17617-3 0  9990
2 41179  47.0064  20.5228 0002231 212.6210 147.4538 14.58760641546061
ORBCOMM FM119           
1 41180U 15081B   26087.84630973  .00000513  00000+0  14508-3 0  9991
2 41180  47.0000 291.1800 0001464 268.6411  91.4307 14.58701955547275
